{
    "CCSDS_OMM_VERS": "3.0",
    "COMMENT": "GENERATED VIA SPACE-TRACK.ORG API",
    "CREATION_DATE": "2025-11-23T21:08:43",
    "ORIGINATOR": "18 SPCS",
    "OBJECT_NAME": "COSMOS 2476 (GLONASS)",
    "OBJECT_ID": "2011-064A",
    "CENTER_NAME": "EARTH",
    "REF_FRAME": "TEME",
    "TIME_SYSTEM": "UTC",
    "MEAN_ELEMENT_THEORY": "SGP4",
    "EPOCH": "2025-11-23T05:41:44.931840",
    "MEAN_MOTION": "2.13101442",
    "ECCENTRICITY": "0.00236911",
    "INCLINATION": "65.1523",
    "RA_OF_ASC_NODE": "79.8314",
    "ARG_OF_PERICENTER": "232.6175",
    "MEAN_ANOMALY": "333.6287",
    "EPHEMERIS_TYPE": "0",
    "CLASSIFICATION_TYPE": "U",
    "NORAD_CAT_ID": "37867",
    "ELEMENT_SET_NO": "999",
    "REV_AT_EPOCH": "10937",
    "BSTAR": "0.00000000000000",
    "MEAN_MOTION_DOT": "0.00000003",
    "MEAN_MOTION_DDOT": "0.0000000000000",
    "SEMIMAJOR_AXIS": "25508.069",
    "PERIOD": "675.735",
    "APOAPSIS": "19190.365",
    "PERIAPSIS": "19069.502",
    "OBJECT_TYPE": "PAYLOAD",
    "RCS_SIZE": "LARGE",
    "COUNTRY_CODE": "CIS",
    "LAUNCH_DATE": "2011-11-04",
    "SITE": "TTMTR",
    "DECAY_DATE": null,
    "FILE": "4896238",
    "GP_ID": "303330970",
    "TLE_LINE0": "0 COSMOS 2476 (GLONASS)",
    "TLE_LINE1": "1 37867U 11064A   25327.23732560  .00000003  00000-0  00000-0 0  9993",
    "TLE_LINE2": "2 37867  65.1523  79.8314 0023691 232.6175 333.6287  2.13101442109374"
}